NORAD_CAT_ID,OBJECT_NAME,OBJECT_TYPE,EPOCH,MEAN_MOTION,ECCENTRICITY,INCLINATION,RA_OF_ASC_NODE,ARG_OF_PERICENTER,MEAN_ANOMALY,BSTAR,MEAN_MOTION_DOT,MEAN_MOTION_DDOT,TLE_LINE0,TLE_LINE1,TLE_LINE2,SEMIMAJOR_AXIS,PERIOD,APOGEE,PERIGEE,DECAYED
53898.0,STARLINK-5044,PAYLOAD,2022-12-18 00:59:16,15.08831071,0.000236,53.2175,210.4992,38.5437,321.5724,-8.6226e-05,-1.66e-05,0.0,0 STARLINK-5044,1 53898U 22119N   22352.04115958 -.00001660  00000-0 -86226-4 0  9998,2 53898  53.2175 210.4992 0002360  38.5437 321.5724 15.08831071 13480,6917.908,95.438,541.405,538.14,0.0
53898.0,STARLINK-5044,PAYLOAD,2022-12-18 07:20:48,15.08830889,0.0002414,53.2174,209.3098,36.0083,324.1071,-2.3475e-05,-6.62e-06,0.0,0 STARLINK-5044,1 53898U 22119N   22352.30611904 -.00000662  00000-0 -23475-4 0  9997,2 53898  53.2174 209.3098 0002414  36.0083 324.1071 15.08830889 13944,6917.908,95.438,541.443,538.1030000000002,0.0
53898.0,STARLINK-5044,PAYLOAD,2022-12-18 21:39:16,15.08842056,0.0002342,53.2168,206.6319,38.4123,321.7036,0.00011717,1.577e-05,0.0,0 STARLINK-5044,1 53898U 22119N   22352.90226928  .00001577  00000-0  11717-3 0  9990,2 53898  53.2168 206.6319 0002342  38.4123 321.7036 15.08842056 14038,6917.874,95.437,541.359,538.119,0.0
53898.0,STARLINK-5044,PAYLOAD,2022-12-19 00:50:02,15.08836029,0.0002365,53.2167,206.039,36.6342,323.4812,6.8177e-05,7.97e-06,0.0,0 STARLINK-5044,1 53898U 22119N   22353.03475516  .00000797  00000-0  68177-4 0  9990,2 53898  53.2167 206.0390 0002365  36.6342 323.4812 15.08836029 13637,6917.893,95.438,541.394,538.121,0.0
53898.0,STARLINK-5044,PAYLOAD,2022-12-19 07:11:35,15.08838614,0.0002372,53.2171,204.8491,36.0552,324.06,8.438e-05,1.055e-05,0.0,0 STARLINK-5044,1 53898U 22119N   22353.29971325  .00001055  00000-0  84380-4 0  9999,2 53898  53.2171 204.8491 0002372  36.0552 324.0600 15.08838614 14090,6917.885,95.438,541.391,538.109,0.0
53898.0,STARLINK-5044,PAYLOAD,2022-12-20 07:02:22,15.08837362,0.0002339,53.2172,200.3889,35.6785,324.4363,4.7962e-05,4.75e-06,0.0,0 STARLINK-5044,1 53898U 22119N   22354.29331596  .00000475  00000-0  47962-4 0  9990,2 53898  53.2172 200.3889 0002339  35.6785 324.4363 15.08837362 13828,6917.888000000001,95.438,541.372,538.135,0.0
53898.0,STARLINK-5044,PAYLOAD,2022-12-20 13:23:54,15.08838943,0.0002311,53.2168,199.199,35.7597,324.355,2.9819e-05,1.86e-06,0.0,0 STARLINK-5044,1 53898U 22119N   22354.55827539  .00000186  00000-0  29819-4 0  9996,2 53898  53.2168 199.1990 0002311  35.7597 324.3550 15.08838943 14287,6917.884,95.438,541.347,538.15,0.0
53898.0,STARLINK-5044,PAYLOAD,2022-12-21 06:53:09,15.08837124,0.0002474,53.2171,195.9289,39.8122,320.3051,-0.00011174,-2.066e-05,0.0,0 STARLINK-5044,1 53898U 22119N   22355.28692091 -.00002066  00000-0 -11174-3 0  9995,2 53898  53.2171 195.9289 0002474  39.8122 320.3051 15.08837124 14399,6917.889,95.438,541.466,538.043,0.0
53898.0,STARLINK-5044,PAYLOAD,2022-12-21 16:25:28,15.08836921,0.0002341,53.2167,194.1452,37.0134,323.1019,-6.705800000000001e-05,-1.355e-05,0.0,0 STARLINK-5044,1 53898U 22119N   22355.68435911 -.00001355  00000-0 -67058-4 0  9998,2 53898  53.2167 194.1452 0002341  37.0134 323.1019 15.08836921 14033,6917.89,95.438,541.374,538.135,0.0
53898.0,STARLINK-5044,PAYLOAD,2022-12-22 06:43:56,15.0883607,0.0002407,53.2171,191.4684,38.8494,321.2671,1.5393e-05,-4.3e-07,0.0,0 STARLINK-5044,1 53898U 22119N   22356.28051768 -.00000043  00000-0  15393-4 0  9996,2 53898  53.2171 191.4684 0002407  38.8494 321.2671 15.08836070 14540,6917.892,95.438,541.423,538.092,0.0
53898.0,STARLINK-5044,PAYLOAD,2022-12-22 19:27:01,15.08841792,0.0002481,53.2169,189.0895,39.2067,320.9105,6.0275e-06,-1.93e-06,0.0,0 STARLINK-5044,1 53898U 22119N   22356.81043443 -.00000193  00000-0  60275-5 0  9992,2 53898  53.2169 189.0895 0002481  39.2067 320.9105 15.08841792 14621,6917.875,95.437,541.456,538.024,0.0
53898.0,STARLINK-5044,PAYLOAD,2022-12-22 22:37:47,15.08843543,0.0002432,53.2171,188.4947,37.7704,322.3459,-1.6942e-05,-5.58e-06,0.0,0 STARLINK-5044,1 53898U 22119N   22356.94291384 -.00000558  00000-0 -16942-4 0  9992,2 53898  53.2171 188.4947 0002432  37.7704 322.3459 15.08843543 14222,6917.87,95.437,541.4169999999998,538.052,0.0
53898.0,STARLINK-5044,PAYLOAD,2022-12-23 12:56:15,15.08839082,0.000249,53.2172,185.8183,39.9505,320.1670000000001,8.3858e-05,1.046e-05,0.0,0 STARLINK-5044,1 53898U 22119N   22357.53907263  .00001046  00000-0  83858-4 0  9999,2 53898  53.2172 185.8183 0002490  39.9505 320.1670 15.08839082 14733,6917.8830000000025,95.438,541.471,538.026,0.0
53898.0,STARLINK-5044,PAYLOAD,2022-12-23 19:17:48,15.08842581,0.0002506,53.2171,184.6289,40.8707,319.2472,8.645e-05,1.088e-05,0.0,0 STARLINK-5044,1 53898U 22119N   22357.80402995  .00001088  00000-0  86450-4 0  9998,2 53898  53.2171 184.6289 0002506  40.8707 319.2472 15.08842581 14770,6917.871999999999,95.437,541.471,538.004,0.0
53898.0,STARLINK-5044,PAYLOAD,2022-12-23 22:28:34,15.08844792,0.0002525,53.2171,184.0343,40.6787,319.4393,7.3538e-05,8.82e-06,0.0,0 STARLINK-5044,1 53898U 22119N   22357.93650861  .00000882  00000-0  73538-4 0  9993,2 53898  53.2171 184.0343 0002525  40.6787 319.4393 15.08844792 14794,6917.866,95.437,541.4780000000002,537.984,0.0
53898.0,STARLINK-5044,PAYLOAD,2022-12-24 19:08:35,15.0883726,0.0002503,53.2167,180.1678,42.0428,318.0756,-2.8148e-05,-7.36e-06,0.0,0 STARLINK-5044,1 53898U 22119N   22358.79763541 -.00000736  00000-0 -28148-4 0  9995,2 53898  53.2167 180.1678 0002503  42.0428 318.0756 15.08837260 14500,6917.889,95.438,541.485,538.0219999999998,0.0
53898.0,STARLINK-5044,PAYLOAD,2022-12-25 11:02:27,15.08838828,0.0002539,53.2164,177.1943,41.9709,318.1478,-4.3249e-05,-9.77e-06,0.0,0 STARLINK-5044,1 53898U 22119N   22359.46003488 -.00000977  00000-0 -43249-4 0  9993,2 53898  53.2164 177.1943 0002539  41.9709 318.1478 15.08838828 15028,6917.884,95.438,541.505,537.993,0.0
53898.0,STARLINK-5044,PAYLOAD,2022-12-25 20:34:45,15.08841402,0.0002599,53.217,175.4106,42.6718,317.4476,-4.482e-05,-1.002e-05,0.0,0 STARLINK-5044,1 53898U 22119N   22359.85747307 -.00001002  00000-0 -44820-4 0  9997,2 53898  53.2170 175.4106 0002599  42.6718 317.4476 15.08841402 15089,6917.876,95.437,541.539,537.943,0.0
53898.0,STARLINK-5044,PAYLOAD,2022-12-26 04:31:41,15.08846504,0.0002569,53.2168,173.9237,43.5823,316.5372,-5.6624e-05,-1.19e-05,0.0,0 STARLINK-5044,1 53898U 22119N   22360.18866941 -.00001190  00000-0 -56624-4 0  9994,2 53898  53.2168 173.9237 0002569  43.5823 316.5372 15.08846504 15137,6917.861,95.437,541.503,537.948,0.0
53898.0,STARLINK-5044,PAYLOAD,2022-12-26 20:25:33,15.08826431,0.0002569,53.2171,170.9503,43.3928,316.7266,-5.3428e-05,-1.138e-05,0.0,0 STARLINK-5044,1 53898U 22119N   22360.85108329 -.00001138  00000-0 -53428-4 0  9998,2 53898  53.2171 170.9503 0002569  43.3928 316.7266 15.08826431 15230,6917.922,95.438,541.564,538.01,0.0
53898.0,STARLINK-5044,PAYLOAD,2022-12-27 04:22:29,15.08830198,0.0002579,53.2172,169.4635,43.6731,316.4465,-2.9876e-05,-7.64e-06,0.0,0 STARLINK-5044,1 53898U 22119N   22361.18228215 -.00000764  00000-0 -29876-4 0  9996,2 53898  53.2172 169.4635 0002579  43.6731 316.4465 15.08830198 15284,6917.91,95.438,541.559,537.991,0.0
53898.0,STARLINK-5044,PAYLOAD,2022-12-28 10:34:48,15.08839623,0.0002523,53.2172,163.8127,43.7578,316.3614,6.1164e-05,6.85e-06,0.0,0 STARLINK-5044,1 53898U 22119N   22362.44083485  .00000685  00000-0  61164-4 0  9990,2 53898  53.2172 163.8127 0002523  43.7578 316.3614 15.08839623 15059,6917.882,95.438,541.492,538.001,0.0
53898.0,STARLINK-5044,PAYLOAD,2022-12-28 13:45:34,15.08842242,0.0002533,53.2171,163.2184,44.1414,315.978,7.6449e-05,9.29e-06,0.0,0 STARLINK-5044,1 53898U 22119N   22362.57331243  .00000929  00000-0  76449-4 0  9995,2 53898  53.2171 163.2184 0002533  44.1414 315.9780 15.08842242 15498,6917.874,95.437,541.491,537.986,0.0
53898.0,STARLINK-5044,PAYLOAD,2022-12-29 10:25:35,15.08834818,0.0002599,53.2169,159.35299999999995,44.8296,315.2906,1.039e-05,-1.23e-06,0.0,0 STARLINK-5044,1 53898U 22119N   22363.43444013 -.00000123  00000-0  10390-4 0  9991,2 53898  53.2169 159.3530 0002599  44.8296 315.2906 15.08834818 15205,6917.896,95.438,541.559,537.9630000000002,0.0
53898.0,STARLINK-5044,PAYLOAD,2022-12-29 19:57:54,15.088397400000002,0.0002634,53.217,157.5693,45.3006,314.82,3.8481e-06,-2.27e-06,0.0,0 STARLINK-5044,1 53898U 22119N   22363.83187746 -.00000227  00000-0  38481-5 0  9999,2 53898  53.2170 157.5693 0002634  45.3006 314.8200 15.08839740 15685,6917.880999999999,95.438,541.568,537.924,0.0
53898.0,STARLINK-5044,PAYLOAD,2022-12-30 16:37:54,15.08843525,0.0002663999999999,53.2173,153.7033,44.9807,315.14,-5.3146e-05,-1.134e-05,0.0,0 STARLINK-5044,1 53898U 22119N   22364.69299465 -.00001134  00000-0 -53146-4 0  9999,2 53898  53.2173 153.7033 0002664  44.9807 315.1400 15.08843525 15391,6917.87,95.437,541.578,537.8919999999998,0.0
53898.0,STARLINK-5044,PAYLOAD,2022-12-30 19:48:40,15.08844746,0.0002683,53.2173,153.1088,44.6715,315.4493,-3.8518e-05,-9.02e-06,0.0,0 STARLINK-5044,1 53898U 22119N   22364.82547301 -.00000902  00000-0 -38518-4 0  9997,2 53898  53.2173 153.1088 0002683  44.6715 315.4493 15.08844746 15831,6917.866,95.437,541.587,537.875,0.0
53898.0,STARLINK-5044,PAYLOAD,2022-12-31 19:39:27,15.0884139,0.0002593999999999,53.2177,148.6479,43.0124,317.1071,-1.3419e-05,-5.02e-06,0.0,0 STARLINK-5044,1 53898U 22119N   22365.81907065 -.00000502  00000-0 -13419-4 0  9993,2 53898  53.2177 148.6479 0002594  43.0124 317.1071 15.08841390 15985,6917.876,95.437,541.536,537.947,0.0
53898.0,STARLINK-5044,PAYLOAD,2022-12-31 21:14:51,15.0883806,0.0002583,53.2175,148.3501,42.5713,317.5479,-4.380800000000001e-05,-9.86e-06,0.0,0 STARLINK-5044,1 53898U 22119N   22365.88531372 -.00000986  00000-0 -43808-4 0  9995,2 53898  53.2175 148.3501 0002583  42.5713 317.5479 15.08838060 15573,6917.886,95.438,541.538,537.964,0.0
